[{"OBJECT_NAME":"FLOCK 4Q-11","OBJECT_ID":"2023-174T","EPOCH":"2026-04-26T18:37:07.018752","MEAN_MOTION":15.4750065,"ECCENTRICITY":0.00048412,"INCLINATION":97.3866,"RA_OF_ASC_NODE":204.3241,"ARG_OF_PERICENTER":357.2759,"MEAN_ANOMALY":2.8464,"EPHEMERIS_TYPE":0,"CLASSIFICATION_TYPE":"U","NORAD_CAT_ID":58273,"ELEMENT_SET_NO":999,"REV_AT_EPOCH":13763,"BSTAR":0.00052252814,"MEAN_MOTION_DOT":0.00026811,"MEAN_MOTION_DDOT":0},{"OBJECT_NAME":"FLOCK 4Q-36","OBJECT_ID":"2023-174U","EPOCH":"2026-04-26T19:32:16.954368","MEAN_MOTION":15.54351778,"ECCENTRICITY":0.00051511,"INCLINATION":97.3847,"RA_OF_ASC_NODE":207.4779,"ARG_OF_PERICENTER":325.6275,"MEAN_ANOMALY":34.4644,"EPHEMERIS_TYPE":0,"CLASSIFICATION_TYPE":"U","NORAD_CAT_ID":58274,"ELEMENT_SET_NO":999,"REV_AT_EPOCH":13784,"BSTAR":0.00056743901,"MEAN_MOTION_DOT":0.00037189,"MEAN_MOTION_DDOT":0},{"OBJECT_NAME":"FLOCK 4Q-28","OBJECT_ID":"2023-174AA","EPOCH":"2026-04-26T18:33:00.720864","MEAN_MOTION":15.51948996,"ECCENTRICITY":0.0003817,"INCLINATION":97.3882,"RA_OF_ASC_NODE":206.4079,"ARG_OF_PERICENTER":335.9222,"MEAN_ANOMALY":24.1851,"EPHEMERIS_TYPE":0,"CLASSIFICATION_TYPE":"U","NORAD_CAT_ID":58280,"ELEMENT_SET_NO":999,"REV_AT_EPOCH":13776,"BSTAR":0.00055973711,"MEAN_MOTION_DOT":0.00033615,"MEAN_MOTION_DDOT":0},{"OBJECT_NAME":"FLOCK 4Q-27","OBJECT_ID":"2023-174AC","EPOCH":"2026-04-26T18:30:14.005152","MEAN_MOTION":15.51841432,"ECCENTRICITY":0.00036209,"INCLINATION":97.3815,"RA_OF_ASC_NODE":205.8983,"ARG_OF_PERICENTER":336.061,"MEAN_ANOMALY":24.0473,"EPHEMERIS_TYPE":0,"CLASSIFICATION_TYPE":"U","NORAD_CAT_ID":58282,"ELEMENT_SET_NO":999,"REV_AT_EPOCH":13777,"BSTAR":0.00056488846,"MEAN_MOTION_DOT":0.00033795,"MEAN_MOTION_DDOT":0},{"OBJECT_NAME":"FLOCK 4Q-26","OBJECT_ID":"2023-174AE","EPOCH":"2026-04-26T19:30:56.984256","MEAN_MOTION":15.5399874,"ECCENTRICITY":0.00047034,"INCLINATION":97.3871,"RA_OF_ASC_NODE":207.5578,"ARG_OF_PERICENTER":337.8645,"MEAN_ANOMALY":22.2405,"EPHEMERIS_TYPE":0,"CLASSIFICATION_TYPE":"U","NORAD_CAT_ID":58284,"ELEMENT_SET_NO":999,"REV_AT_EPOCH":13784,"BSTAR":0.00050016061,"MEAN_MOTION_DOT":0.00032327,"MEAN_MOTION_DDOT":0},{"OBJECT_NAME":"FLOCK 4Q-31","OBJECT_ID":"2023-174AF","EPOCH":"2026-04-26T18:52:31.036512","MEAN_MOTION":15.53978598,"ECCENTRICITY":0.00044425,"INCLINATION":97.3908,"RA_OF_ASC_NODE":207.1826,"ARG_OF_PERICENTER":335.9252,"MEAN_ANOMALY":24.1793,"EPHEMERIS_TYPE":0,"CLASSIFICATION_TYPE":"U","NORAD_CAT_ID":58285,"ELEMENT_SET_NO":999,"REV_AT_EPOCH":13779,"BSTAR":0.00067818797,"MEAN_MOTION_DOT":0.00043898,"MEAN_MOTION_DDOT":0},{"OBJECT_NAME":"FLOCK 4Q-30","OBJECT_ID":"2023-174AG","EPOCH":"2026-04-26T18:25:58.406304","MEAN_MOTION":15.54172997,"ECCENTRICITY":0.00031112,"INCLINATION":97.3926,"RA_OF_ASC_NODE":207.3732,"ARG_OF_PERICENTER":335.0832,"MEAN_ANOMALY":25.0271,"EPHEMERIS_TYPE":0,"CLASSIFICATION_TYPE":"U","NORAD_CAT_ID":58286,"ELEMENT_SET_NO":999,"REV_AT_EPOCH":13780,"BSTAR":0.0006144707,"MEAN_MOTION_DOT":0.00040019,"MEAN_MOTION_DDOT":0},{"OBJECT_NAME":"PELICAN-1","OBJECT_ID":"2023-174AS","EPOCH":"2026-04-26T18:34:10.826688","MEAN_MOTION":15.70990345,"ECCENTRICITY":0.00034735,"INCLINATION":97.3999,"RA_OF_ASC_NODE":213.9504,"ARG_OF_PERICENTER":141.8991,"MEAN_ANOMALY":218.2517,"EPHEMERIS_TYPE":0,"CLASSIFICATION_TYPE":"U","NORAD_CAT_ID":58296,"ELEMENT_SET_NO":999,"REV_AT_EPOCH":13808,"BSTAR":0.0010738913,"MEAN_MOTION_DOT":0.00136117,"MEAN_MOTION_DDOT":0},{"OBJECT_NAME":"FLOCK 4Q-29","OBJECT_ID":"2023-174BA","EPOCH":"2026-04-26T18:34:28.768512","MEAN_MOTION":15.5260601,"ECCENTRICITY":0.0003986,"INCLINATION":97.3929,"RA_OF_ASC_NODE":206.8662,"ARG_OF_PERICENTER":323.0628,"MEAN_ANOMALY":37.035,"EPHEMERIS_TYPE":0,"CLASSIFICATION_TYPE":"U","NORAD_CAT_ID":58304,"ELEMENT_SET_NO":999,"REV_AT_EPOCH":13777,"BSTAR":0.00055918664,"MEAN_MOTION_DOT":0.00034386,"MEAN_MOTION_DDOT":0},{"OBJECT_NAME":"FLOCK 4Q-22","OBJECT_ID":"2023-174BC","EPOCH":"2026-04-26T18:30:45.637920","MEAN_MOTION":15.5586066,"ECCENTRICITY":0.00029857,"INCLINATION":97.3814,"RA_OF_ASC_NODE":207.1986,"ARG_OF_PERICENTER":319.2598,"MEAN_ANOMALY":40.8433,"EPHEMERIS_TYPE":0,"CLASSIFICATION_TYPE":"U","NORAD_CAT_ID":58306,"ELEMENT_SET_NO":999,"REV_AT_EPOCH":13786,"BSTAR":0.00057315077,"MEAN_MOTION_DOT":0.00039695,"MEAN_MOTION_DDOT":0},{"OBJECT_NAME":"FLOCK 4Q-33","OBJECT_ID":"2023-174BE","EPOCH":"2026-04-26T19:01:11.124768","MEAN_MOTION":15.54516344,"ECCENTRICITY":0.00041103,"INCLINATION":97.3849,"RA_OF_ASC_NODE":207.097,"ARG_OF_PERICENTER":316.6914,"MEAN_ANOMALY":43.4017,"EPHEMERIS_TYPE":0,"CLASSIFICATION_TYPE":"U","NORAD_CAT_ID":58308,"ELEMENT_SET_NO":999,"REV_AT_EPOCH":13784,"BSTAR":0.00058902091,"MEAN_MOTION_DOT":0.00038839,"MEAN_MOTION_DDOT":0},{"OBJECT_NAME":"FLOCK 4Q-35","OBJECT_ID":"2023-174BF","EPOCH":"2026-04-26T19:29:58.495776","MEAN_MOTION":15.53474277,"ECCENTRICITY":0.00041048,"INCLINATION":97.3872,"RA_OF_ASC_NODE":207.2179,"ARG_OF_PERICENTER":332.6563,"MEAN_ANOMALY":27.4474,"EPHEMERIS_TYPE":0,"CLASSIFICATION_TYPE":"U","NORAD_CAT_ID":58309,"ELEMENT_SET_NO":999,"REV_AT_EPOCH":13782,"BSTAR":0.00051638043,"MEAN_MOTION_DOT":0.00032749,"MEAN_MOTION_DDOT":0},{"OBJECT_NAME":"FLOCK 4Q-7","OBJECT_ID":"2023-174BQ","EPOCH":"2026-04-26T19:35:10.532832","MEAN_MOTION":15.52354767,"ECCENTRICITY":0.00048298,"INCLINATION":97.3908,"RA_OF_ASC_NODE":206.6904,"ARG_OF_PERICENTER":320.0897,"MEAN_ANOMALY":40,"EPHEMERIS_TYPE":0,"CLASSIFICATION_TYPE":"U","NORAD_CAT_ID":58318,"ELEMENT_SET_NO":999,"REV_AT_EPOCH":13777,"BSTAR":0.00051595233,"MEAN_MOTION_DOT":0.00031428,"MEAN_MOTION_DDOT":0},{"OBJECT_NAME":"FLOCK 4Q-2","OBJECT_ID":"2023-174BS","EPOCH":"2026-04-26T22:50:41.460864","MEAN_MOTION":15.47395195,"ECCENTRICITY":0.00044946,"INCLINATION":97.383,"RA_OF_ASC_NODE":204.2671,"ARG_OF_PERICENTER":327.4261,"MEAN_ANOMALY":32.6711,"EPHEMERIS_TYPE":0,"CLASSIFICATION_TYPE":"U","NORAD_CAT_ID":58320,"ELEMENT_SET_NO":999,"REV_AT_EPOCH":13767,"BSTAR":0.00045026364,"MEAN_MOTION_DOT":0.00022994,"MEAN_MOTION_DDOT":0},{"OBJECT_NAME":"FLOCK 4Q-9","OBJECT_ID":"2023-174BU","EPOCH":"2026-04-26T21:56:39.460704","MEAN_MOTION":15.47279744,"ECCENTRICITY":0.00045823,"INCLINATION":97.3866,"RA_OF_ASC_NODE":204.2772,"ARG_OF_PERICENTER":327.7834,"MEAN_ANOMALY":32.3136,"EPHEMERIS_TYPE":0,"CLASSIFICATION_TYPE":"U","NORAD_CAT_ID":58322,"ELEMENT_SET_NO":999,"REV_AT_EPOCH":13765,"BSTAR":0.00051595273,"MEAN_MOTION_DOT":0.00026268,"MEAN_MOTION_DDOT":0},{"OBJECT_NAME":"FLOCK 4Q-4","OBJECT_ID":"2023-174BZ","EPOCH":"2026-04-26T22:24:55.253376","MEAN_MOTION":15.46502666,"ECCENTRICITY":0.00048518,"INCLINATION":97.3821,"RA_OF_ASC_NODE":203.5998,"ARG_OF_PERICENTER":0.1842,"MEAN_ANOMALY":359.9408,"EPHEMERIS_TYPE":0,"CLASSIFICATION_TYPE":"U","NORAD_CAT_ID":58327,"ELEMENT_SET_NO":999,"REV_AT_EPOCH":13763,"BSTAR":0.0004455558,"MEAN_MOTION_DOT":0.00022061,"MEAN_MOTION_DDOT":0}]
