FLOCK 4Q-11             
1 58273U 23174T   26116.77577568  .00026811  00000+0  52253-3 0  9997
2 58273  97.3866 204.3241 0004841 357.2759   2.8464 15.47500650137634
FLOCK 4Q-36             
1 58274U 23174U   26116.81408512  .00037189  00000+0  56744-3 0  9994
2 58274  97.3847 207.4779 0005151 325.6275  34.4644 15.54351778137848
FLOCK 4Q-28             
1 58280U 23174AA  26116.77292501  .00033615  00000+0  55974-3 0  9999
2 58280  97.3882 206.4079 0003817 335.9222  24.1851 15.51948996137767
FLOCK 4Q-27             
1 58282U 23174AC  26116.77099543  .00033795  00000+0  56489-3 0  9993
2 58282  97.3815 205.8983 0003620 336.0610  24.0473 15.51841432137774
FLOCK 4Q-26             
1 58284U 23174AE  26116.81315954  .00032327  00000+0  50016-3 0  9997
2 58284  97.3871 207.5578 0004703 337.8645  22.2405 15.53998740137847
FLOCK 4Q-31             
1 58285U 23174AF  26116.78647033  .00043898  00000+0  67819-3 0  9994
2 58285  97.3908 207.1826 0004442 335.9252  24.1793 15.53978598137798
FLOCK 4Q-30             
1 58286U 23174AG  26116.76803711  .00040019  00000+0  61447-3 0  9993
2 58286  97.3926 207.3732 0003111 335.0832  25.0271 15.54172997137807
PELICAN-1               
1 58296U 23174AS  26116.77373642  .00136117  00000+0  10739-2 0  9992
2 58296  97.3999 213.9504 0003473 141.8991 218.2517 15.70990345138081
FLOCK 4Q-29             
1 58304U 23174BA  26116.77394408  .00034386  00000+0  55919-3 0  9990
2 58304  97.3929 206.8662 0003986 323.0628  37.0350 15.52606010137770
FLOCK 4Q-22             
1 58306U 23174BC  26116.77136155  .00039695  00000+0  57315-3 0  9995
2 58306  97.3814 207.1986 0002985 319.2598  40.8433 15.55860660137869
FLOCK 4Q-33             
1 58308U 23174BE  26116.79248987  .00038839  00000+0  58902-3 0  9998
2 58308  97.3849 207.0970 0004110 316.6914  43.4017 15.54516344137847
FLOCK 4Q-35             
1 58309U 23174BF  26116.81248259  .00032749  00000+0  51638-3 0  9997
2 58309  97.3872 207.2179 0004104 332.6563  27.4474 15.53474277137822
FLOCK 4Q-7              
1 58318U 23174BQ  26116.81609413  .00031428  00000+0  51595-3 0  9995
2 58318  97.3908 206.6904 0004829 320.0897  40.0000 15.52354767137776
FLOCK 4Q-2              
1 58320U 23174BS  26116.95186876  .00022994  00000+0  45026-3 0  9996
2 58320  97.3830 204.2671 0004494 327.4261  32.6711 15.47395195137671
FLOCK 4Q-9              
1 58322U 23174BU  26116.91434561  .00026268  00000+0  51595-3 0  9997
2 58322  97.3866 204.2772 0004582 327.7834  32.3136 15.47279744137658
FLOCK 4Q-4              
1 58327U 23174BZ  26116.93397284  .00022061  00000+0  44556-3 0  9990
2 58327  97.3821 203.5998 0004851   0.1842 359.9408 15.46502666137635
